[{"OBJECT_NAME":"STARLINK-1356","OBJECT_ID":"2020-025AK","EPOCH":"2026-03-09T09:47:10.727520","MEAN_MOTION":15.44776817,"ECCENTRICITY":0.0005933,"INCLINATION":53.0527,"RA_OF_ASC_NODE":75.1976,"ARG_OF_PERICENTER":32.1669,"MEAN_ANOMALY":327.9698,"EPHEMERIS_TYPE":0,"CLASSIFICATION_TYPE":"U","NORAD_CAT_ID":45564,"ELEMENT_SET_NO":999,"REV_AT_EPOCH":32550,"BSTAR":0.0018744498,"MEAN_MOTION_DOT":0.00089774,"MEAN_MOTION_DDOT":0},{"OBJECT_NAME":"STARLINK-30469","OBJECT_ID":"2023-146F","EPOCH":"2026-03-09T22:00:01.999584","MEAN_MOTION":15.08741624,"ECCENTRICITY":0.00012153,"INCLINATION":42.9999,"RA_OF_ASC_NODE":312.1219,"ARG_OF_PERICENTER":254.0494,"MEAN_ANOMALY":345.6756,"EPHEMERIS_TYPE":0,"CLASSIFICATION_TYPE":"U","NORAD_CAT_ID":57896,"ELEMENT_SET_NO":999,"REV_AT_EPOCH":578,"BSTAR":0.099451711,"MEAN_MOTION_DOT":0.01743611,"MEAN_MOTION_DDOT":0}]
